{
  "norad_id": 62365,
  "name": "TIANQI-33",
  "history": [
    {
      "epoch": "2026-04-11T19:57:56.217024Z",
      "apogee_km": 902.0268892614049,
      "perigee_km": 891.1976974633044,
      "latitude_deg": 3.3247305592314354e-06,
      "longitude_deg": 117.75042845646385,
      "height_km": 894.3384275804261,
      "semi_major_axis_km": 7274.749293362354,
      "eccentricity": 0.0007443,
      "inclination_deg": 44.9833,
      "raan_deg": 257.2804,
      "arg_perigee_deg": 65.3213,
      "mean_anomaly_deg": 294.8394,
      "mean_motion_rev_day": 13.99186852
    },
    {
      "epoch": "2026-04-13T06:14:20.983776Z",
      "apogee_km": 901.9832769054519,
      "perigee_km": 891.2383289056042,
      "latitude_deg": -4.010093181230763e-05,
      "longitude_deg": -44.114474716570705,
      "height_km": 895.0085680875102,
      "semi_major_axis_km": 7274.747802905528,
      "eccentricity": 0.00073851,
      "inclination_deg": 44.9833,
      "raan_deg": 250.9263,
      "arg_perigee_deg": 72.8025,
      "mean_anomaly_deg": 287.3615,
      "mean_motion_rev_day": 13.99187282
    },
    {
      "epoch": "2026-04-14T19:56:24.155232Z",
      "apogee_km": 901.9459171893732,
      "perigee_km": 891.2724096184274,
      "latitude_deg": -7.058506027374262e-06,
      "longitude_deg": 101.83452529714592,
      "height_km": 895.7788363768929,
      "semi_major_axis_km": 7274.7461634039,
      "eccentricity": 0.0007336,
      "inclination_deg": 44.9832,
      "raan_deg": 243.9368,
      "arg_perigee_deg": 81.2044,
      "mean_anomaly_deg": 278.9619,
      "mean_motion_rev_day": 13.99187755
    },
    {
      "epoch": "2026-04-15T16:30:14.946336Z",
      "apogee_km": 901.9289900708363,
      "perigee_km": 891.2874927317143,
      "latitude_deg": -2.542672607619331e-05,
      "longitude_deg": 148.7158411140221,
      "height_km": 896.2063518531231,
      "semi_major_axis_km": 7274.745241401275,
      "eccentricity": 0.0007314,
      "inclination_deg": 44.9831,
      "raan_deg": 240.1243,
      "arg_perigee_deg": 85.824,
      "mean_anomaly_deg": 274.3428,
      "mean_motion_rev_day": 13.99188021
    },
    {
      "epoch": "2026-04-16T18:12:33.416640Z",
      "apogee_km": 901.9269236747368,
      "perigee_km": 891.2868832415388,
      "latitude_deg": -2.5181146302936442e-05,
      "longitude_deg": 117.31771161446643,
      "height_km": 896.7246920987387,
      "semi_major_axis_km": 7274.7439034581375,
      "eccentricity": 0.0007313,
      "inclination_deg": 44.983,
      "raan_deg": 235.3588,
      "arg_perigee_deg": 91.4252,
      "mean_anomaly_deg": 268.7418,
      "mean_motion_rev_day": 13.99188407
    },
    {
      "epoch": "2026-04-17T18:12:02.621952Z",
      "apogee_km": 901.9232744658366,
      "perigee_km": 891.2883279647403,
      "latitude_deg": 2.6353904200534453e-05,
      "longitude_deg": 112.0127817704006,
      "height_km": 897.2116234808456,
      "semi_major_axis_km": 7274.742801215289,
      "eccentricity": 0.00073095,
      "inclination_deg": 44.9829,
      "raan_deg": 230.9108,
      "arg_perigee_deg": 96.6992,
      "mean_anomaly_deg": 263.4673,
      "mean_motion_rev_day": 13.99188725
    },
    {
      "epoch": "2026-04-18T18:11:31.790112Z",
      "apogee_km": 901.9201931719535,
      "perigee_km": 891.2888858860861,
      "latitude_deg": 6.7953563321576495e-06,
      "longitude_deg": 106.70803532703056,
      "height_km": 897.6952643212128,
      "semi_major_axis_km": 7274.741539529019,
      "eccentricity": 0.0007307,
      "inclination_deg": 44.9829,
      "raan_deg": 226.4629,
      "arg_perigee_deg": 101.9983,
      "mean_anomaly_deg": 258.1669,
      "mean_motion_rev_day": 13.99189089
    },
    {
      "epoch": "2026-04-19T18:11:00.911616Z",
      "apogee_km": 901.9163769913002,
      "perigee_km": 891.2894369352089,
      "latitude_deg": 4.7485000297569515e-08,
      "longitude_deg": 101.40349533879672,
      "height_km": 898.171451258064,
      "semi_major_axis_km": 7274.739906963255,
      "eccentricity": 0.0007304,
      "inclination_deg": 44.9829,
      "raan_deg": 222.015,
      "arg_perigee_deg": 107.3276,
      "mean_anomaly_deg": 252.8356,
      "mean_motion_rev_day": 13.9918956
    },
    {
      "epoch": "2026-04-20T13:02:02.340096Z",
      "apogee_km": 901.9150417326482,
      "perigee_km": 891.2883944028426,
      "latitude_deg": 4.075058792376632e-05,
      "longitude_deg": 174.3785240585559,
      "height_km": 898.5417903374054,
      "semi_major_axis_km": 7274.738718067745,
      "eccentricity": 0.00073038,
      "inclination_deg": 44.983,
      "raan_deg": 218.5201,
      "arg_perigee_deg": 111.5741,
      "mean_anomaly_deg": 248.5871,
      "mean_motion_rev_day": 13.99189903
    },
    {
      "epoch": "2026-04-21T18:09:59.042304Z",
      "apogee_km": 901.9297997475005,
      "perigee_km": 891.2694007335085,
      "latitude_deg": -3.193712546390525e-05,
      "longitude_deg": 90.79476365241321,
      "height_km": 899.0785118401999,
      "semi_major_axis_km": 7274.736600240504,
      "eccentricity": 0.0007327,
      "inclination_deg": 44.983,
      "raan_deg": 213.1191,
      "arg_perigee_deg": 117.8734,
      "mean_anomaly_deg": 242.2841,
      "mean_motion_rev_day": 13.99190514
    },
    {
      "epoch": "2026-04-22T16:26:38.838336Z",
      "apogee_km": 901.9445276823872,
      "perigee_km": 891.252121702154,
      "latitude_deg": 2.4758243918210007e-05,
      "longitude_deg": 111.58398748609675,
      "height_km": 899.477568357914,
      "semi_major_axis_km": 7274.73532469227,
      "eccentricity": 0.0007349,
      "inclination_deg": 44.983,
      "raan_deg": 208.989,
      "arg_perigee_deg": 122.7451,
      "mean_anomaly_deg": 237.4091,
      "mean_motion_rev_day": 13.99190882
    },
    {
      "epoch": "2026-04-23T13:00:29.389248Z",
      "apogee_km": 901.9566713951135,
      "perigee_km": 891.2374962173071,
      "latitude_deg": 1.5159560558127155e-05,
      "longitude_deg": 158.46641221189066,
      "height_km": 899.8263806444863,
      "semi_major_axis_km": 7274.73408380621,
      "eccentricity": 0.00073674,
      "inclination_deg": 44.9829,
      "raan_deg": 205.1766,
      "arg_perigee_deg": 127.2116,
      "mean_anomaly_deg": 232.939,
      "mean_motion_rev_day": 13.9919124
    },
    {
      "epoch": "2026-04-24T16:25:36.755616Z",
      "apogee_km": 901.9781229095825,
      "perigee_km": 891.2129736846136,
      "latitude_deg": -1.0238287979351412e-05,
      "longitude_deg": 100.9764457755041,
      "height_km": 900.2652593287754,
      "semi_major_axis_km": 7274.732548297098,
      "eccentricity": 0.0007399,
      "inclination_deg": 44.9828,
      "raan_deg": 200.0934,
      "arg_perigee_deg": 133.1449,
      "mean_anomaly_deg": 227.0003,
      "mean_motion_rev_day": 13.99191683
    },
    {
      "epoch": "2026-04-25T16:25:05.662848Z",
      "apogee_km": 902.0056470331119,
      "perigee_km": 891.1823022890103,
      "latitude_deg": 5.124155649494679e-05,
      "longitude_deg": 95.6730695731611,
      "height_km": 900.626340423154,
      "semi_major_axis_km": 7274.730974661061,
      "eccentricity": 0.0007439,
      "inclination_deg": 44.9827,
      "raan_deg": 195.6457,
      "arg_perigee_deg": 138.3348,
      "mean_anomaly_deg": 221.8053,
      "mean_motion_rev_day": 13.99192137
    },
    {
      "epoch": "2026-04-26T14:41:45.337920Z",
      "apogee_km": 902.0305624557741,
      "perigee_km": 891.1539692358228,
      "latitude_deg": 3.9226651281635136e-05,
      "longitude_deg": 116.46273301971361,
      "height_km": 900.9293517373777,
      "semi_major_axis_km": 7274.729265845798,
      "eccentricity": 0.00074756,
      "inclination_deg": 44.9825,
      "raan_deg": 191.5156,
      "arg_perigee_deg": 143.0615,
      "mean_anomaly_deg": 217.0734,
      "mean_motion_rev_day": 13.9919263
    },
    {
      "epoch": "2026-04-27T14:41:14.188128Z",
      "apogee_km": 902.0632973834408,
      "perigee_km": 891.1191962089606,
      "latitude_deg": 3.399101136690869e-05,
      "longitude_deg": 111.15922970478861,
      "height_km": 901.2306382959378,
      "semi_major_axis_km": 7274.7282467962,
      "eccentricity": 0.0007522,
      "inclination_deg": 44.9823,
      "raan_deg": 187.0676,
      "arg_perigee_deg": 148.1514,
      "mean_anomaly_deg": 211.9775,
      "mean_motion_rev_day": 13.99192924
    },
    {
      "epoch": "2026-04-28T14:40:43.015872Z",
      "apogee_km": 902.097092195052,
      "perigee_km": 891.0831553296766,
      "latitude_deg": 1.8909514954861635e-05,
      "longitude_deg": 105.8559104797366,
      "height_km": 901.4979269798185,
      "semi_major_axis_km": 7274.7271237623645,
      "eccentricity": 0.000757,
      "inclination_deg": 44.9822,
      "raan_deg": 182.6197,
      "arg_perigee_deg": 153.2075,
      "mean_anomaly_deg": 206.915,
      "mean_motion_rev_day": 13.99193248
    },
    {
      "epoch": "2026-04-29T14:40:11.819424Z",
      "apogee_km": 902.1383247557233,
      "perigee_km": 891.0400025204772,
      "latitude_deg": 4.737691830571607e-05,
      "longitude_deg": 100.55273535701707,
      "height_km": 901.7343864692787,
      "semi_major_axis_km": 7274.7261636381,
      "eccentricity": 0.0007628,
      "inclination_deg": 44.982,
      "raan_deg": 178.1718,
      "arg_perigee_deg": 158.2012,
      "mean_anomaly_deg": 201.9147,
      "mean_motion_rev_day": 13.99193525
    },
    {
      "epoch": "2026-04-30T12:56:51.399456Z",
      "apogee_km": 902.1765472112284,
      "perigee_km": 891.000241093684,
      "latitude_deg": 7.052709639282694e-06,
      "longitude_deg": 121.34256723327304,
      "height_km": 901.9205608552547,
      "semi_major_axis_km": 7274.725394152456,
      "eccentricity": 0.00076816,
      "inclination_deg": 44.982,
      "raan_deg": 174.0415,
      "arg_perigee_deg": 162.8094,
      "mean_anomaly_deg": 197.3,
      "mean_motion_rev_day": 13.99193747
    }
  ]
}